1 45406U 20019AY  22365.18862989  .00007004  00000-0  48846-3 0  9994
2 45406  53.0562 324.2645 0001833  67.5818 292.5365 15.06415012154342
1 45406U 20019AY  22365.85209824  .00004444  00000-0  31701-3 0  9998
2 45406  53.0570 321.2886 0001732  68.5113 291.6061 15.06407937154443
1 45406U 20019AY  22365.85209824  .00004444  00000-0  31701-3 0  9998
2 45406  53.0570 321.2886 0001732  68.5113 291.6061 15.06407937154443
1 45406U 20019AY  23001.18384040 -.00001755  00000-0 -99000-4 0  9997
2 45406  53.0572 319.7987 0001668  68.7116 291.4051 15.06390909154494
1 45406U 20019AY  23001.31653397 -.00001690  00000-0 -94580-4 0  9992
2 45406  53.0563 319.2021 0001698  60.5522 299.5636 15.06391541154516
1 45406U 20019AY  23001.98001239 -.00006751  00000-0 -43499-3 0  9992
2 45406  53.0563 316.2232 0001829  64.8827 295.2352 15.06379985154615
1 45406U 20019AY  23002.24539343 -.00002003  00000-0 -11564-3 0  9998
2 45406  53.0561 315.0316 0001727  67.0151 293.1020 15.06395972154652
1 45406U 20019AY  23002.57712893  .00003856  00000-0  27764-3 0  9991
2 45406  53.0555 313.5420 0001669  64.5266 295.5896 15.06398419154700
1 45406U 20019AY  23003.57233133  .00010987  00000-0  75503-3 0  9994
2 45406  53.0550 309.0742 0001575  67.2070 292.9085 15.06415651154856
1 45406U 20019AY  23003.57233133  .00010987  00000-0  75503-3 0  9994
2 45406  53.0550 309.0742 0001575  67.2070 292.9085 15.06415651154856
1 45406U 20019AY  23004.16945511  .00001374  00000-0  11112-3 0  9996
2 45406  53.0552 306.3936 0001587  66.8099 293.3057 15.06400339154943
1 45406U 20019AY  23004.56753355  .00012023  00000-0  82440-3 0  9998
2 45406  53.0552 304.6065 0001591  67.6149 292.5009 15.06412253155001
1 45406U 20019AY  23004.56753355  .00012023  00000-0  82440-3 0  9998
2 45406  53.0552 304.6065 0001591  67.6149 292.5009 15.06412253155001
1 45406U 20019AY  23005.23098916  .00022932  00000-0  15516-2 0  9997
2 45406  53.0555 301.6282 0001670  66.4552 293.6613 15.06442373155105
1 45406U 20019AY  23005.23098916  .00022932  00000-0  15516-2 0  9997
2 45406  53.0555 301.6282 0001670  66.4552 293.6613 15.06442373155105
1 45406U 20019AY  23005.82812431  .00004753  00000-0  33794-3 0  9998
2 45406  53.0561 298.9490 0001203  77.2539 282.8585 15.06378594155198
1 45406U 20019AY  23005.82812431  .00004753  00000-0  33794-3 0  9998
2 45406  53.0561 298.9490 0001203  77.2539 282.8585 15.06378594155198
1 45406U 20019AY  23006.49160765  .00014522  00000-0  99251-3 0  9993
2 45406  53.0556 295.9702 0001176  69.5130 290.5985 15.06373886155295
1 45406U 20019AY  23007.15507580  .00020332  00000-0  13796-2 0  9992
2 45406  53.0552 292.9921 0001514  94.0295 266.0867 15.06408820155397
1 45406U 20019AY  23007.22142183  .00023430  00000-0  15860-2 0  9990
2 45406  53.0552 292.6944 0001509  94.0995 266.0166 15.06414738155409
1 45406U 20019AY  23007.48681309  .00018762  00000-0  12750-2 0  9993
2 45406  53.0553 291.5023 0002301  81.0743 279.0506 15.06402871155445
1 45406U 20019AY  23007.48681309  .00018762  00000-0  12750-2 0  9993
2 45406  53.0553 291.5023 0002301  81.0743 279.0506 15.06402871155445
1 45406U 20019AY  23008.15027822  .00019821  00000-0  13456-2 0  9993
2 45406  53.0552 288.5273 0001135 100.3691 259.7426 15.06406398155543
1 45406U 20019AY  23008.15027822  .00019821  00000-0  13456-2 0  9993
2 45406  53.0552 288.5273 0001135 100.3691 259.7426 15.06406398155543
1 45406U 20019AY  23008.81375208  .00010779  00000-0  74153-3 0  9995
2 45406  53.0551 285.5457 0001491  96.6697 263.4462 15.06394097155646
1 45406U 20019AY  23008.81375208  .00010779  00000-0  74153-3 0  9995
2 45406  53.0551 285.5457 0001491  96.6697 263.4462 15.06394097155646
1 45406U 20019AY  23009.14548862  .00005102  00000-0  36129-3 0  9995
2 45406  53.0539 284.0605 0000930 116.5901 243.5184 15.06387758155699
1 45406U 20019AY  23009.47722562  .00002360  00000-0  17732-3 0  9994
2 45406  53.0548 282.5699 0001090  99.5606 260.5506 15.06389352155740
1 45406U 20019AY  23009.74261353  .00002913  00000-0  21439-3 0  9993
2 45406  53.0560 281.3781 0001252  95.6460 264.4671 15.06395455155789
1 45406U 20019AY  23010.14068990  .00009846  00000-0  67875-3 0  9997
2 45406  53.0530 279.5896 0001555  96.7132 263.4034 15.06412883155840
1 45406U 20019AY  23010.47242567  .00006815  00000-0  47590-3 0  9992
2 45406  53.0504 278.0999 0001555  99.8651 260.2513 15.06406852155890
1 45406U 20019AY  23010.47242567  .00006815  00000-0  47590-3 0  9992
2 45406  53.0504 278.0999 0001555  99.8651 260.2513 15.06406852155890
1 45406U 20019AY  23011.53397113  .00003168  00000-0  23142-3 0  9993
2 45406  53.0535 273.3362 0001762  86.3277 273.7913 15.06408523156050
1 45406U 20019AY  23011.53397113  .00003168  00000-0  23142-3 0  9993
2 45406  53.0535 273.3362 0001762  86.3277 273.7913 15.06408523156050
1 45406U 20019AY  23011.86570525 -.00000069  00000-0  14264-4 0  9993
2 45406  53.0538 271.8457 0001670  89.7868 270.3312 15.06402573156103
1 45406U 20019AY  23012.79456150 -.00000321  00000-0 -26826-5 0  9993
2 45406  53.0535 267.6770 0001609  85.1340 274.9833 15.06397437156243
1 45406U 20019AY  23012.92724142  .00002409  00000-0  18048-3 0  9999
2 45406  53.0550 267.0805 0001359  95.6285 264.4859 15.06414969156263
1 45406U 20019AY  23012.99358819  .00002368  00000-0  17777-3 0  9992
2 45406  53.0555 266.7825 0001301  84.7353 275.3785 15.06414462156276
1 45406U 20019AY  23013.39167608  .00001027  00000-0  87837-4 0  9997
2 45406  53.0551 264.9957 0001272  84.1222 275.9912 15.06404465156331
1 45406U 20019AY  23013.39167608  .00001027  00000-0  87837-4 0  9997
2 45406  53.0551 264.9957 0001272  84.1222 275.9912 15.06404465156331
1 45406U 20019AY  23013.78976991 -.00000385  00000-0 -69737-5 0  9991
2 45406  53.0546 263.2088 0001427  98.0019 262.1132 15.06389726156392
1 45406U 20019AY  23014.05515327  .00000283  00000-0  37871-4 0  9992
2 45406  53.0546 262.0175 0001332  96.6470 263.4671 15.06395585156433
1 45406U 20019AY  23015.11669687 -.00000174  00000-0  72260-5 0  9991
2 45406  53.0536 257.2514 0001287 103.8826 256.2306 15.06402851156597
1 45406U 20019AY  23015.38209322 -.00000751  00000-0 -31504-4 0  9993
2 45406  53.0515 256.0582 0001713  84.8303 275.2881 15.06392026156634
1 45406U 20019AY  23015.38209322 -.00000751  00000-0 -31504-4 0  9993
2 45406  53.0515 256.0582 0001713  84.8303 275.2881 15.06392026156634
1 45406U 20019AY  23015.91286710  .00002637  00000-0  19586-3 0  9996
2 45406  53.0537 253.6767 0001258  94.1258 265.9874 15.06399149156713
1 45406U 20019AY  23015.91286710  .00002637  00000-0  19586-3 0  9996
2 45406  53.0537 253.6767 0001258  94.1258 265.9874 15.06399149156713
1 45406U 20019AY  23016.90807172 -.00000335  00000-0 -36089-5 0  9991
2 45406  53.0525 249.2099 0001237  89.4087 270.7043 15.06399348156862
1 45406U 20019AY  23017.04076812  .00002378  00000-0  17853-3 0  9999
2 45406  53.0545 248.6122 0001508  97.8431 262.2729 15.06395579156882
1 45406U 20019AY  23017.37250461  .00001398  00000-0  11275-3 0  9992
2 45406  53.0538 247.1232 0001468  97.8444 262.2712 15.06393043156931
1 45406U 20019AY  23017.63789267  .00001237  00000-0  10193-3 0  9992
2 45406  53.0537 245.9319 0001179 102.3777 257.7344 15.06391978156971
1 45406U 20019AY  23018.43405222  .00002919  00000-0  21477-3 0  9992
2 45406  53.0528 242.3586 0001268 102.4662 257.6469 15.06399608157090
1 45406U 20019AY  23018.43405222  .00002919  00000-0  21477-3 0  9992
2 45406  53.0528 242.3586 0001268 102.4662 257.6469 15.06399608157090
1 45406U 20019AY  23018.89847382  .00004957  00000-0  35131-3 0  9995
2 45406  53.0530 240.2740 0001201 100.1516 259.9608 15.06411308157162
1 45406U 20019AY  23018.89847382  .00004957  00000-0  35131-3 0  9995
2 45406  53.0530 240.2740 0001201 100.1516 259.9608 15.06411308157162
1 45406U 20019AY  23019.29655606  .00002836  00000-0  20917-3 0  9996
2 45406  53.0532 238.4855 0001178  99.1558 260.9564 15.06405245157229
1 45406U 20019AY  23019.62830022 -.00001586  00000-0 -87636-4 0  9995
2 45406  53.0527 236.9972 0001149  97.5103 262.6016 15.06387133157273
1 45406U 20019AY  23019.69464676 -.00000928  00000-0 -43424-4 0  9996
2 45406  53.0528 236.7002 0001233  95.6321 264.4808 15.06389475157282
1 45406U 20019AY  23020.29176489  .00000867  00000-0  77086-4 0  9997
2 45406  53.0527 234.0197 0001174  94.4567 265.6556 15.06397708157371
1 45406U 20019AY  23020.29176489  .00000867  00000-0  77086-4 0  9997
2 45406  53.0527 234.0197 0001174  94.4567 265.6556 15.06397708157371
1 45406U 20019AY  23021.61870098  .00004202  00000-0  30080-3 0  9990
2 45406  53.0522 228.0625 0001143  90.8427 269.2693 15.06404233157572
1 45406U 20019AY  23022.54755781  .00000100  00000-0  25639-4 0  9992
2 45406  53.0523 223.8921 0001293  87.1554 272.9582 15.06396938157717
1 45406U 20019AY  23023.80814308  .00002202  00000-0  16663-3 0  9994
2 45406  53.0530 218.2329 0001219  83.9208 276.1920 15.06407284157903
1 45406U 20019AY  23024.53796182  .00001780  00000-0  13833-3 0  9990
2 45406  53.0530 214.9566 0001240  81.3436 278.7693 15.06398704158012
1 45406U 20019AY  23025.53316685  .00000121  00000-0  27025-4 0  9994
2 45406  53.0542 210.4899 0001148  73.9146 286.1969 15.06396702158168
1 45406U 20019AY  23025.79855606  .00003725  00000-0  26895-3 0  9999
2 45406  53.0542 209.2977 0001111  90.8816 269.2300 15.06381920158205
1 45406U 20019AY  23025.79855606  .00003725  00000-0  26895-3 0  9999
2 45406  53.0542 209.2977 0001111  90.8816 269.2300 15.06381920158205
1 45406U 20019AY  23026.46202107  .00000739  00000-0  68532-4 0  9993
2 45406  53.0542 206.3192 0001146  86.5209 273.5911 15.06396518158304
1 45406U 20019AY  23026.66106091  .00000805  00000-0  72959-4 0  9992
2 45406  53.0543 205.4257 0001140  86.8931 273.2188 15.06397533158330
1 45406U 20019AY  23027.19183601  .00000760  00000-0  69884-4 0  9996
2 45406  53.0545 203.0432 0001104  88.1422 271.9694 15.06396517158418
1 45406U 20019AY  23027.78895932  .00001020  00000-0  87383-4 0  9992
2 45406  53.0545 200.3625 0001108  87.3596 272.7520 15.06395454158505
1 45406U 20019AY  23027.78895932  .00001020  00000-0  87383-4 0  9992
2 45406  53.0545 200.3625 0001108  87.3596 272.7520 15.06395454158505
1 45406U 20019AY  23028.45243069  .00000266  00000-0  36755-4 0  9993
2 45406  53.0546 197.3837 0001138  83.4043 276.7075 15.06393864158606
1 45406U 20019AY  23028.71781645  .00000187  00000-0  31469-4 0  9998
2 45406  53.0546 196.1921 0001117  83.4309 276.6807 15.06396776158640
1 45406U 20019AY  23029.24859061  .00000400  00000-0  45733-4 0  9992
2 45406  53.0545 193.8096 0001177  83.0966 277.0157 15.06397098158727
1 45406U 20019AY  23029.84570944  .00000782  00000-0  71363-4 0  9999
2 45406  53.0547 191.1291 0001168  82.4275 277.6846 15.06400362158813
1 45406U 20019AY  23030.44283924 -.00000036  00000-0  16455-4 0  9990
2 45406  53.0546 188.4485 0001205  82.5362 277.5764 15.06390792158909
1 45406U 20019AY  23030.57553189  .00000130  00000-0  27627-4 0  9994
2 45406  53.0546 187.8528 0001228  82.3402 277.7726 15.06392478158923
1 45406U 20019AY  23030.57553189  .00000130  00000-0  27627-4 0  9994
2 45406  53.0546 187.8528 0001228  82.3402 277.7726 15.06392478158923
1 45406U 20019AY  23031.50438864 -.00000165  00000-0  77804-5 0  9992
2 45406  53.0547 183.6828 0001158  88.0216 272.0906 15.06393536159069
